SCD 1                   
1 22490U 93009B   26193.62433510  .00000291  00000+0  28972-4 0  9996
2 22490  24.9703  50.5147 0042010  47.3908 347.2956 14.46127983764800
TECHSAT 1B (GO-32)      
1 25397U 98043D   26193.56255600  .00000019  00000+0  28421-4 0  9990
2 25397  99.0083 186.9628 0002119 118.5783 241.5609 14.24433030454940
SCD 2                   
1 25504U 98060A   26193.29152345  .00000289  00000+0  29983-4 0  9994
2 25504  24.9952 277.3447 0016907  29.1714  10.3478 14.45534297463965
DLR-TUBSAT              
1 25757U 99029B   26193.57610353  .00000016  00000+0  15907-4 0  9998
2 25757  98.6709 189.9170 0012960 273.4248  86.5463 14.52432938436938
TERRA                   
1 25994U 99068A   26193.57965986  .00000197  00000+0  49139-4 0  9993
2 25994  97.9443 242.1174 0003304 127.8609  29.8806 14.61122436413316
MAROC-TUBSAT            
1 27004U 01056D   26193.48466315 -.00000022  00000+0  27337-4 0  9993
2 27004  99.8095  10.8225 0020620  78.7772 341.6089 13.70263481229651
AQUA                    
1 27424U 02022A   26193.59322584  .00000373  00000+0  83913-4 0  9994
2 27424  98.4293 163.3866 0000855 108.2245  26.9730 14.62194763286982
SHIYAN-1 (SY-1)         
1 28220U 04012A   26193.16565102  .00008611  00000+0  26104-3 0  9999
2 28220  97.8694 272.8674 0004091 289.6193  70.4607 15.34402205214925
AURA                    
1 28376U 04026A   26193.52559794  .00000373  00000+0  85147-4 0  9996
2 28376  98.3429 150.1910 0001281  92.2509 267.8838 14.61365463169916
IRS-P5 (CARTOSAT-1)     
1 28649U 05017A   26193.57897519  .00000565  00000+0  62324-4 0  9990
2 28649  97.5307 215.4915 0001536  55.7963 304.3402 14.91113151147600
SINAH 1                 
1 28893U 05043D   26193.54457493  .00000136  00000+0  35210-4 0  9998
2 28893  98.2889 328.0201 0014201 191.8740 168.2129 14.64174472104239
RESURS-DK 1             
1 29228U 06021A   26193.55037036  .00000960  00000+0  59854-4 0  9991
2 29228  69.9310 273.8939 0006967 274.1061  85.9309 15.13313451106416
ARIRANG-2 (KOMPSAT-2)   
1 29268U 06031A   26193.63872178  .00000231  00000+0  51780-4 0  9990
2 29268  97.8313  16.8552 0014475 359.0458  65.4845 14.64675230 65205
LAPAN-TUBSAT            
1 29709U 07001A   26193.57323863  .00000910  00000+0  11069-3 0  9992
2 29709  98.1351 193.3705 0013614 101.2183 259.0563 14.85978036 54926
HAIYANG-1B              
1 31113U 07010A   26193.52578641  .00000031  00000+0  27500-4 0  9997
2 31113  98.3513 174.3903 0014573 123.1700 237.0884 14.31032894  4260
COSMO-SKYMED 1          
1 31598U 07023A   26193.59892769  .00001265  00000+0  11451-3 0  9992
2 31598  97.8844  25.6697 0001206 102.3868 257.7489 14.97211589 33599
TERRASAR-X              
1 31698U 07026A   26188.47915537  .00000240  00000+0  14624-4 0  9994
2 31698  97.4461 195.8972 0001878  86.9540 273.1909 15.19153986 56300
WORLDVIEW-1 (WV-1)      
1 32060U 07041A   26193.56402310  .00003549  00000+0  14711-3 0  9992
2 32060  97.3899 312.9506 0001282 219.6177 140.4967 15.24540838 46742
YAOGAN-3                
1 32289U 07055A   26193.63224237  .00001529  00000+0  16083-3 0  9998
2 32289  97.8150 223.2581 0001555  82.5367 277.6028 14.90875442  9663
COSMO-SKYMED 2          
1 32376U 07059A   26193.61250619  .00000195  00000+0  31019-4 0  9995
2 32376  97.8891  16.8424 0001425  93.7066 266.4310 14.82149302  5778
RADARSAT-2              
1 32382U 07061A   26193.64715212 -.00000030  00000+0  54585-5 0  9996
2 32382  98.5783 200.2158 0001327  83.5432 276.5901 14.29982566969596
CARTOSAT-2A             
1 32783U 08021A   26193.61548653  .00000353  00000+0  54120-4 0  9999
2 32783  97.7627 241.4544 0012706  34.9714 325.2330 14.79274246982565
HUANJING 1A (HJ-1A)     
1 33320U 08041A   26193.58599457  .00001064  00000+0  13343-3 0  9994
2 33320  97.6691 178.4439 0020500  57.5915 302.7280 14.84046074962171
HUANJING 1B (HJ-1B)     
1 33321U 08041B   26193.63418284 -.00000021  00000+0  37599-5 0  9993
2 33321  97.6529 181.5846 0037905  99.2132 261.3373 14.83360210962184
GEOEYE 1                
1 33331U 08042A   26193.56524904  .00000188  00000+0  44413-4 0  9999
2 33331  98.1328 267.1919 0004131 355.6908   4.4259 14.64648076953867
THEOS                   
1 33396U 08049A   26193.61474260  .00000145  00000+0  87945-4 0  9992
2 33396  98.5566 250.0711 0001134  86.7143 273.4164 14.20137249921573
COSMO-SKYMED 3          
1 33412U 08054A   26193.57332284  .00001109  00000+0  78105-4 0  9990
2 33412  97.8260  52.5646 0015596 174.6783 185.4612 15.07100843960761
YAOGAN-4                
1 33446U 08061A   26193.39778994  .00000516  00000+0  69664-4 0  9998
2 33446  97.9304 126.7227 0014081 354.8687   5.2380 14.83248158949404
GOSAT (IBUKI)           
1 33492U 09002A   26192.82030937 -.00000054  00000+0 -97420-6 0  9992
2 33492  98.0913 303.5970 0001240  92.1118 268.0228 14.67536213935079
DEIMOS-1                
1 35681U 09041A   26193.55344847  .00000606  00000+0  96614-4 0  9999
2 35681  97.7425 349.6856 0002754  95.9611 264.1913 14.75263938910621
